2023-054AR              
1 56217U 23054AR  23117.62113929  .00016112  00000+0  70393-3 0  9997
2 56217  97.4122  13.2863 0011332 190.1872 169.9136 15.22127920  2489
2023-054AS              
1 56218U 23054AS  23117.62157168  .00011267  00000+0  50228-3 0  9992
2 56218  97.4065  13.2758 0009454 181.9614 178.1586 15.21539789  2483
FENGYUN 3G              
1 56232U 23055A   23118.10873927 -.00000468  00000+0  00000+0 0  9992
2 56232  49.9965 135.6289 0006341 334.2234 143.0982 15.52550999  1874
STARLINK-30096          
1 56286U 23056A   23118.50571466  .00984812  00000+0  37035-2 0  9993
2 56286  43.0016 148.2921 0002758  22.4094 337.6899 15.84546373  2679
STARLINK-30107          
1 56287U 23056B   23119.25001157 -.01232659  00000+0 -15920-1 0  9998
2 56287  43.0022 144.5550 0001628 268.3303  46.5081 15.61020514  2008
STARLINK-30106          
1 56288U 23056C   23118.91667824 -.01152795  00000+0 -14303-1 0  9996
2 56288  43.0025 146.5321 0001453 264.6943 334.7337 15.61859294  1959
STARLINK-30095          
1 56289U 23056D   23118.91667824  .00173853  00000+0  11034-2 0  9991
2 56289  43.0021 146.1675 0001229 292.2478  94.1197 15.75211155  1959
STARLINK-30103          
1 56290U 23056E   23118.91667824 -.01152333  00000+0 -14302-1 0  9996
2 56290  43.0026 146.5328 0001535 257.9994 341.1472 15.61849035  1956
STARLINK-30113          
1 56291U 23056F   23118.91667824 -.01151656  00000+0 -14283-1 0  9992
2 56291  43.0025 146.5314 0001315 258.5310 341.1780 15.61868264  1953
STARLINK-30098          
1 56292U 23056G   23118.91667824 -.01151084  00000+0 -14260-1 0  9993
2 56292  43.0025 146.5294 0001380 258.7734 341.7950 15.61894809  1954
STARLINK-30090          
1 56293U 23056H   23119.25001157 -.01228027  00000+0 -15824-1 0  9992
2 56293  43.0023 144.5518 0001578 270.5290  45.7782 15.61068501  2001
STARLINK-30049          
1 56294U 23056J   23119.25001157 -.00500338  00000+0 -57190-2 0  9993
2 56294  43.0023 144.5356 0001991 269.0482  53.7458 15.62888382  2004
STARLINK-30083          
1 56295U 23056K   23118.91667824  .00191188  00000+0  11909-2 0  9990
2 56295  43.0022 146.1601 0001044 289.8022  99.6001 15.75586593  1953
STARLINK-30089          
1 56296U 23056L   23119.25001157  .00174807  00000+0  10278-2 0  9997
2 56296  43.0013 144.1035 0000459 316.2612 180.6685 15.76945155  2002
STARLINK-30086          
1 56297U 23056M   23119.25001157 -.00674599  00000+0 -78190-2 0  9990
2 56297  43.0025 144.5324 0001330 266.2381  57.9082 15.63084982  2002
STARLINK-30109          
1 56298U 23056N   23119.25001157 -.00678774  00000+0 -78790-2 0  9996
2 56298  43.0026 144.5349 0001329 263.4407  59.8865 15.63060793  2001
STARLINK-30108          
1 56299U 23056P   23118.91667824  .00128630  00000+0  11054-2 0  9997
2 56299  43.0029 146.4581 0001790 270.2361 359.4882 15.68190785  1952
STARLINK-30104          
1 56300U 23056Q   23119.25001157 -.01224936  00000+0 -15676-1 0  9991
2 56300  43.0029 144.5443 0001349 263.9385  55.3451 15.61239472  2007
STARLINK-30101          
1 56301U 23056R   23119.25001157 -.01224977  00000+0 -15671-1 0  9992
2 56301  43.0027 144.5438 0001314 261.7659  57.8299 15.61248913  2009
STARLINK-30111          
1 56302U 23056S   23119.25001157 -.00675027  00000+0 -78139-2 0  9997
2 56302  43.0027 144.5298 0001308 264.9725  60.3550 15.63119019  2001
STARLINK-30097          
1 56303U 23056T   23119.25001157 -.00677979  00000+0 -78530-2 0  9991
2 56303  43.0027 144.5306 0001309 268.3833  56.6585 15.63112370  2000
STARLINK-30099          
1 56304U 23056U   23118.91667824 -.01150612  00000+0 -14051-1 0  9991
2 56304  43.0029 146.5189 0001438 260.1505 344.9283 15.62258535  1957
STARLINK-30094          
1 56305U 23056V   23119.25001157 -.00675905  00000+0 -78167-2 0  9996
2 56305  43.0027 144.5272 0001361 261.0891  65.1221 15.63145164  2005
STARLINK-30112          
1 56306U 23056W   23119.25001157 -.00676337  00000+0 -78274-2 0  9996
2 56306  43.0026 144.5290 0001353 261.8664  63.7728 15.63128155  2009
2023-057A               
1 56308U 23057A   23116.83940054  .00000661  00000+0  00000+0 0  9996
2 56308   9.8871 277.2923 0023317 274.2324  85.5281 14.88309695   674
2023-057B               
1 56309U 23057B   23117.01969031  .00000685  00000+0  00000+0 0  9990
2 56309   9.9918 275.8022 0007715  66.5885 293.5581 14.94978547   691
2023-057C               
1 56310U 23057C   23118.82387718  .00000678  00000+0  00000+0 0  9990
2 56310   9.9858 262.8447 0004048  55.9566 304.2636 14.94312323   962
ARKSAT 1                
1 56311U 98067VC  23119.18758196  .00052617  00000+0  87270-3 0  9994
2 56311  51.6393 211.3354 0007854 284.3881  75.6236 15.51574396   748
AURORASAT               
1 56312U 98067VD  23119.18763609  .00055244  00000+0  91595-3 0  9994
2 56312  51.6392 211.3359 0007769 284.0966  75.9160 15.51563846   779
EX-ALTA-2               
1 56313U 98067VE  23119.18769378  .00054682  00000+0  90751-3 0  9992
2 56313  51.6393 211.3362 0007715 283.6237  76.3893 15.51541663   762
LIGHTCUBE               
1 56314U 98067VF  23119.12384466  .00059553  00000+0  99300-3 0  9999
2 56314  51.6390 211.6593 0007757 266.9261  93.0841 15.51373083   786
NEUDOSE                 
1 56315U 98067VG  23118.54419711  .00042131  00000+0  71098-3 0  9995
2 56315  51.6387 214.5374 0007973 263.1030  96.9053 15.51186325   648
YUKONSAT                
1 56316U 98067VH  23118.54421730  .00048733  00000+0  82002-3 0  9991
2 56316  51.6387 214.5375 0007828 262.8353  97.1747 15.51203157   661
2023-059A               
1 56367U 23059A   23119.41394940  .00000048  00000+0  00000+0 0  9996
2 56367   8.5950  21.9628 1877492 181.7590 177.4939  7.26215250    69
2023-059B               
1 56368U 23059B   23119.41385137  .00000048  00000+0  00000+0 0  9995
2 56368   8.6017  21.9532 1879771 181.8319 177.3785  7.26414024    47
2023-059C               
1 56369U 23059C   23119.41370227  .00000048  00000+0  00000+0 0  9990
2 56369   8.5930  21.9731 1880504 181.8873 177.3047  7.26706221    36
